satname,norad_id,inclination_deg,eccentricity,mean_motion_rev_per_day,perigee_km,apogee_km,l1,l2
STARLINK-1166,45060,53.0545,0.0001234,15.063979,546.3634053370215,548.0725829495768,1 45060U 20006S   25264.44108934 -.00000443  00000+0 -10854-4 0  9999,2 45060  53.0545 326.4089 0001234  98.0547 262.0582 15.06397900310957
STARLINK-1169,45061,53.056,0.0001602,15.06396886,546.1116595482936,548.3305442841474,1 45061U 20006T   25264.44846727 -.00000286  00000+0 -31269-6 0  9999,2 45061  53.0560 326.3743 0001602  90.4050 269.7122 15.06396886310951
STARLINK-1171,45062,53.0558,0.0001227,15.06392854,546.3837165302657,548.0832024410229,1 45062U 20006U   25264.50006901 -.00000291  00000+0 -64058-6 0  9997,2 45062  53.0558 326.1390 0001227  96.5533 263.5596 15.06392854310960
STARLINK-1133,45064,53.0535,0.0001413,15.06387097,546.2725467180762,548.2296613962826,1 45064U 20006W   25264.38027729 -.00001218  00000+0 -62886-4 0  9991,2 45064  53.0535 306.6765 0001413  83.6636 276.4514 15.06387097311220
STARLINK-1150,45067,53.0398,0.0001482,15.96967289,281.85121154372337,283.82552464282617,1 45067U 20006Z   25264.58335648  .00358564  63291-4  81635-3 0  9993,2 45067  53.0398 251.1944 0001482  45.6231 127.6718 15.96967289  6015
STARLINK-1167,45071,53.0539,0.0001409,15.06396375,546.2468848862309,548.1984512406925,1 45071U 20006AD  25264.40607656  .00000301  00000+0  39131-4 0  9992,2 45071  53.0539 306.5652 0001409  90.3762 269.7389 15.06396375311220
STARLINK-1168,45072,53.0548,0.0001181,15.06397683,546.4007747153173,548.0365437220235,1 45072U 20006AE  25264.40976061  .00001328  00000+0  10800-3 0  9993,2 45072  53.0548 306.5475 0001181  85.1700 274.9424 15.06397683311226
STARLINK-1172,45074,53.0553,0.0001399,15.0640115,546.2391775859842,548.1768891263173,1 45074U 20006AG  25264.48716483  .00001213  00000+0  10034-3 0  9995,2 45074  53.0553 306.2014 0001399  88.6664 271.4485 15.06401150311233
STARLINK-1153,45080,53.054,0.0001406,15.06406949,546.2165593231839,548.1639613487905,1 45080U 20006AN  25264.39870641  .00003072  00000+0  22498-3 0  9991,2 45080  53.0540 306.5988 0001406  87.9858 272.1292 15.06406949311229
STARLINK-1151,45081,53.0555,0.0001281,15.06394297,546.341897477716,548.1161762563606,1 45081U 20006AP  25264.38396945  .00000820  00000+0  73975-4 0  9996,2 45081  53.0555 306.7380 0001281  88.3644 271.7491 15.06394297311221
STARLINK-1190,45083,53.0487,0.0008466,15.73227169,343.9849442652285,355.376485219831,1 45083U 20006AR  25264.44214405  .00118025  00000+0  83097-3 0  9997,2 45083  53.0487 278.5744 0008466  33.6645 326.4909 15.73227169311626
STARLINK-1173,45084,53.0438,0.0008826,15.82549785,317.3182171509188,329.14747520339097,1 45084U 20006AS  25264.58335648  .00246800  00000+0  11248-2 0  9997,2 45084  53.0438 241.7777 0008826  20.1976 297.5575 15.82549785  5885
STARLINK-1179,45085,53.0383,0.0003419,15.9518885,285.50914661881325,290.0673062886617,1 45085U 20006AT  25264.58335648  .00323961  52482-4  81302-3 0  9997,2 45085  53.0383 232.3545 0003419  42.0112 256.3803 15.95188850  6066
STARLINK-1185,45087,53.0549,0.0001322,15.06397143,546.3047820086886,548.1358464825744,1 45087U 20006AV  25264.35999693  .00000091  00000+0  24990-4 0  9991,2 45087  53.0549 286.7687 0001322  89.2044 270.9097 15.06397143311504
STARLINK-1183,45088,53.0548,0.000121,15.06402426,546.3661563318283,548.0420888835006,1 45088U 20006AW  25264.44845899  .00001788  00000+0  13889-3 0  9998,2 45088  53.0548 286.3725 0001210  72.3920 287.7201 15.06402426311510
STARLINK-1176,45090,53.0474,0.0004379,15.80146258,327.0891608555912,332.96417059403393,1 45090U 20006AY  25264.58335648  .00178568  00000+0  91930-3 0  9996,2 45090  53.0474 239.5066 0004379   4.6947 107.1280 15.80146258  6024
STARLINK-1142,45093,53.0381,0.0006194,15.50204941,411.91882343321413,420.33555791261915,1 45093U 20006BB  25264.42877734  .00085948  00000+0  14877-2 0  9992,2 45093  53.0381 233.7603 0006194  62.7258 297.4381 15.50204941312255
STARLINK-1146,45094,53.0443,0.0003089,15.96691892,281.5464563926207,285.66208014815857,1 45094U 20006BC  25264.58335648  .00362475  64266-4  83746-3 0  9997,2 45094  53.0443 233.4220 0003089  26.4845 245.0219 15.96691892  5901
STARLINK-1147,45095,53.0406,0.0008017,15.9158084,292.5064236628814,303.21071495871456,1 45095U 20006BD  25264.58335648  .00212656  27908-4  64754-3 0  9993,2 45095  53.0406 236.2903 0008017  23.4692 204.7046 15.91580840  6055
STARLINK-1152,45096,53.0454,0.0005562,15.20687752,499.9371609172631,507.592588562723,1 45096U 20006BE  25264.41603307  .00011139  00000+0  51433-3 0  9998,2 45096  53.0454 273.2602 0005562  44.4953 315.6488 15.20687752311694
STARLINK-1184,45098,53.0536,0.000128,15.0640846,546.2991880815271,548.072070674647,1 45098U 20006BG  25264.46320691  .00003212  00000+0  23435-3 0  9991,2 45098  53.0536 286.3062 0001280  84.1207 275.9928 15.06408460311517
STARLINK-1193,45100,53.0533,0.0001322,15.06402353,546.2888162155723,548.1198764675446,1 45100U 20006BJ  25264.32682145  .00002161  00000+0  16392-3 0  9991,2 45100  53.0533 286.9175 0001322  91.2132 268.9008 15.06402353311495
STARLINK-1143,45179,53.0553,0.0004214,15.33538571,462.38097765779094,468.14859668401914,1 45179U 20012B   25264.60104533  .00107331  00000+0  32287-2 0  9990,2 45179  53.0553  58.0728 0004214 177.8670 182.2350 15.33538571309741
STARLINK-1201,45182,53.0354,0.000632,16.13851308,232.11883304036382,240.47948034242108,1 45182U 20012E   25264.54108340  .00985157  62286-3  78922-3 0  9992,2 45182  53.0354   6.7539 0006320 355.5250   4.5727 16.13851308310294
STARLINK-1202,45183,53.0543,0.0001252,15.06401738,546.3391782511671,548.0732841962663,1 45183U 20012F   25263.79236673  .00000256  00000+0  36089-4 0  9999,2 45183  53.0543  89.3186 0001252  87.2692 272.8441 15.06401738309232
STARLINK-1216,45185,53.0543,0.0001356,15.06407413,546.2497640704469,548.1279124377816,1 45185U 20012H   25264.51481255  .00001463  00000+0  11707-3 0  9990,2 45185  53.0543  86.0723 0001356  95.1627 264.9517 15.06407413309283
STARLINK-1224,45186,53.0322,0.0006997,16.21595707,210.60955004845164,219.83629792607826,1 45186U 20012J   25264.51133007  .01746843  11871-4  77283-3 0  9993,2 45186  53.0322  27.6938 0006997 336.2050  23.8664 16.21595707310091
STARLINK-1225,45187,53.0549,0.0001471,15.06395245,546.2074104501426,548.2448522833893,1 45187U 20012K   25264.20150692 -.00000671  00000+0 -26163-4 0  9991,2 45187  53.0549  87.4824 0001471  96.8749 263.2407 15.06395245309288
STARLINK-1230,45189,53.0552,0.0001297,15.06401579,546.3085014546295,548.1049356152171,1 45189U 20012M   25264.20519050  .00001424  00000+0  11449-3 0  9995,2 45189  53.0552  87.4653 0001297  95.2361 264.8776 15.06401579306510
STARLINK-1234,45190,53.0559,0.0001297,15.06405858,546.2953886908181,548.0918194495134,1 45190U 20012N   25264.62169391  .00000934  00000+0  81554-4 0  9992,2 45190  53.0559  45.5931 0001297  87.8061 272.3077 15.06405858309815
STARLINK-1240,45194,53.0384,0.0003373,16.04313607,260.2487377372572,264.72850378102066,1 45194U 20012S   25264.63776391  .00631176  20137-3  93726-3 0  9999,2 45194  53.0384  28.8482 0003373   1.2387 358.8652 16.04313607310043
STARLINK-1244,45196,53.0338,0.000509,16.10455027,242.22384685427005,248.96680636275778,1 45196U 20012U   25264.55837275  .00866830  43682-3  87341-3 0  9994,2 45196  53.0338  28.4424 0005090 338.1076  21.9739 16.10455027310191
STARLINK-1269,45197,53.054,0.0001308,15.06395861,546.3184061555594,548.1300806568352,1 45197U 20012V   25264.21623216 -.00004015  00000+0 -25085-3 0  9997,2 45197  53.0540  87.4164 0001308  81.7601 278.3536 15.06395861309268
STARLINK-1154,45198,53.0556,0.0001215,15.06404183,546.3573093832783,548.0401659675344,1 45198U 20012W   25264.60510632  .00003102  00000+0  22704-3 0  9997,2 45198  53.0556  65.6692 0001215  88.8565 271.2563 15.06404183309578
STARLINK-1199,45201,53.055,0.0001277,15.06402989,546.3180312579098,548.086762939929,1 45201U 20012Z   25264.61616063  .00000099  00000+0  25547-4 0  9999,2 45201  53.0550  65.6189 0001277  89.9383 270.1752 15.06402989309633
STARLINK-1206,45204,53.0386,0.0005815,16.09007857,245.71238961745894,253.42040867066407,1 45204U 20012AC  25260.96032920  .01301962  10831-2  14557-2 0  9997,2 45204  53.0386  28.6592 0005815 286.2193  73.8200 16.09007857309841
STARLINK-1208,45205,53.04,0.0001884,15.98497686,277.33209722784613,279.8403505386059,1 45205U 20012AD  25264.58335648  .00401121  78277-4  83792-3 0  9998,2 45205  53.0400  11.3243 0001884   5.9681 306.8421 15.98497686  6063
STARLINK-1209,45206,53.056,0.0001301,15.06395446,546.3245256642995,548.1265049907879,1 45206U 20012AE  25264.55903468 -.00000573  00000+0 -19575-4 0  9998,2 45206  53.0560  45.8785 0001301  95.6815 264.4323 15.06395446308956
STARLINK-1210,45207,53.0299,0.001112,15.46725892,418.7450493481556,433.8781430260751,1 45207U 20012AF  25264.56694724  .00063647  00000+0  12478-2 0  9994,2 45207  53.0299  18.5823 0011120 258.1094 101.8666 15.46725892310291
STARLINK-1231,45212,53.053,0.0003103,15.08897553,537.4209143595826,541.7140417586661,1 45212U 20012AL  25264.61196821  .00041462  00000+0  26035-2 0  9996,2 45212  53.0530  65.1663 0003103 169.8092 190.2961 15.08897553309596
STARLINK-1271,45217,53.0546,0.0001232,15.06408961,546.3308943412749,548.0372934588113,1 45217U 20012AR  25264.60143155  .00002903  00000+0  21363-3 0  9999,2 45217  53.0546  65.6844 0001232  90.5031 269.6099 15.06408961309635
STARLINK-1191,45222,53.0553,0.0001331,15.06419855,546.2289500976458,548.0724616849548,1 45222U 20012AW  25264.61062991  .00004972  00000+0  35228-3 0  9997,2 45222  53.0553  45.6422 0001331  86.9237 273.1904 15.06419855309916
STARLINK-1212,45223,53.0559,0.0001261,15.06409932,546.3078353413202,548.0544005706679,1 45223U 20012AX  25264.56279246  .00001090  00000+0  92001-4 0  9996,2 45223  53.0559  46.5132 0001261  85.6966 274.4167 15.06409932309907
